ORBCOMM-X               
1 21576U 91050C   25157.90875333  .00000288  00000+0  98227-4 0  9993
2 21576  98.3437 224.7165 0003095 197.5582 162.5501 14.43255999780633
ORBCOMM FM01            
1 23545U 95017A   25158.13007737  .00004613  00000+0  48633-3 0  9990
2 23545  69.9628  99.2109 0005099 296.3720  63.6911 14.89976393611365
ORBCOMM FM02            
1 23546U 95017B   25158.14559852  .00006057  00000+0  62264-3 0  9992
2 23546  69.9635 118.5948 0006381 303.4917  56.5628 14.90809125610964
ORBCOMM FM08            
1 25112U 97084A   25158.09223161  .00001238  00000+0  38611-3 0  9999
2 25112  45.0151  56.3227 0005202 199.9422 160.1227 14.45784603440086
ORBCOMM FM10            
1 25113U 97084B   25157.86454401  .00001300  00000+0  40522-3 0  9991
2 25113  45.0163  59.7780 0003600 155.4304 204.6720 14.45573486615022
ORBCOMM FM11            
1 25114U 97084C   25158.07465870  .00001140  00000+0  36220-3 0  9990
2 25114  45.0149  59.3843 0004387 159.8973 200.2052 14.45324622440040
ORBCOMM FM12            
1 25115U 97084D   25158.45201913  .00001156  00000+0  36665-3 0  9999
2 25115  45.0156  57.3257 0003448 156.9034 203.1973 14.45347484440101
ORBCOMM FM09            
1 25116U 97084E   25157.86136241  .00001169  00000+0  37129-3 0  9995
2 25116  45.0159  61.0812 0004831 142.2031 217.9160 14.45221870439981
